[{"OBJECT_NAME":"JILIN-1 GAOFEN 03D47","OBJECT_ID":"2022-167L","EPOCH":"2026-03-09T22:56:46.924224","MEAN_MOTION":15.31686941,"ECCENTRICITY":0.00089304,"INCLINATION":97.6835,"RA_OF_ASC_NODE":234.6581,"ARG_OF_PERICENTER":110.4031,"MEAN_ANOMALY":249.8169,"EPHEMERIS_TYPE":0,"CLASSIFICATION_TYPE":"U","NORAD_CAT_ID":54692,"ELEMENT_SET_NO":999,"REV_AT_EPOCH":18014,"BSTAR":0.00047294748,"MEAN_MOTION_DOT":0.00014417,"MEAN_MOTION_DDOT":0},{"OBJECT_NAME":"STARLINK-34414","OBJECT_ID":"2025-137AC","EPOCH":"2026-03-09T21:30:53.849376","MEAN_MOTION":15.30213049,"ECCENTRICITY":0.00012426,"INCLINATION":53.159,"RA_OF_ASC_NODE":334.4765,"ARG_OF_PERICENTER":115.3515,"MEAN_ANOMALY":244.7615,"EPHEMERIS_TYPE":0,"CLASSIFICATION_TYPE":"U","NORAD_CAT_ID":64620,"ELEMENT_SET_NO":999,"REV_AT_EPOCH":4076,"BSTAR":0.00092246412,"MEAN_MOTION_DOT":0.00027072,"MEAN_MOTION_DDOT":0}]
